#aV2023  6 19  0  0  0.00000000     288 DD+AD WGS84 FIT  NGA
## 2267  86400.00000000   300.00000000 60114 0.0000000000000
+   32     1  2  3  4  5  6  7  8  9 10 11 12 13 14 15 16 17
+         18 19 20 21 22 23 24 25 26 27 28 29 30 31 32  0  0
+          0  0  0  0  0  0  0  0  0  0  0  0  0  0  0  0  0
+          0  0  0  0  0  0  0  0  0  0  0  0  0  0  0  0  0
+          0  0  0  0  0  0  0  0  0  0  0  0  0  0  0  0  0
++         2  2  2  2  2  2  2  2  2  2  2  2  2  2  2  2  2
++         2  2  2  2  2  2  2  2  2  2  2  2  2  2  2  0  0
++         0  0  0  0  0  0  0  0  0  0  0  0  0  0  0  0  0
++         0  0  0  0  0  0  0  0  0  0  0  0  0  0  0  0  0
++         0  0  0  0  0  0  0  0  0  0  0  0  0  0  0  0  0
%c cc cc ccc ccc cccc cccc cccc cccc ccccc ccccc ccccc ccccc
%c cc cc ccc ccc cccc cccc cccc cccc ccccc ccccc ccccc ccccc
%f  0.0000000  0.000000000  0.00000000000  0.000000000000000
%f  0.0000000  0.000000000  0.00000000000  0.000000000000000
%i    0    0    0    0      0      0      0      0         0
%i    0    0    0    0      0      0      0      0         0
/*      NGA, ST. LOUIS,MO.                                  
/*   EPHEMERIS COMPUTED FROM 2 DAYS OF DATA                 
/*   EPOCHA v8 SMOOTHER                                     
/*   G2139 IERS2010 SATIGS SATAPC                           
*  2023  6 19  5  5  0.00000000
P  1 -22082.466241 -14989.038322  -2164.002239    177.515707                    
V  1   2778.223218   -161.679710 -32001.435694     -0.022855                    
P  2 -20336.244750 -15290.976193  -7361.764218   -584.416543                    
V  2  10071.227174   2075.103597 -29933.074774      0.036153                    
P  3 -12493.142922 -14053.020283  18670.970534   -265.197667                    
V  3   1206.343290 -23898.456250 -16938.226496      0.138542                    
P  4 -18768.931432  -4470.025310  18315.117176     72.269459                    
V  4  19809.010335 -12132.666723  17237.472653      0.103947                    
P  5   5514.719504  25168.645460  -6371.728836   -131.662050                    
V  5  -2235.110830   7985.961331  30575.194422     -0.014553                    
P  6 -10060.120515  10924.303835  22086.350198    584.233398                    
V  6 -23840.841555 -14324.740313  -3690.879756     -0.021774                    
P  7 -23603.551722  -4268.431595 -11452.196277    148.436391                    
V  7 -11817.094207  -9719.002380  26411.149180     -0.102336                    
P  8  -8589.188664 -12677.835213 -21779.867214   -128.095392                    
V  8  23486.244224 -14273.902014   -569.875440     -0.018080                    
P  9 -23516.141620   4928.707412  11291.650591   -132.376482                    
V  9  11046.056096  -9643.224870  26996.445270      0.089335                    
P 10  11149.697665 -17135.094638 -16603.723491    -41.758303                    
V 10   1695.153994  21504.221522 -21134.454721     -0.015702                    
P 11   5335.134465  18544.787404  18277.542764   -241.308049                    
V 11 -20217.061956 -11399.506252  17431.642038     -0.152062                    
P 12  10320.528008  17667.602401  16699.766198   -390.369839                    
V 12  -3282.925991  21515.915174 -20319.198229     -0.046896                    
P 13   -566.201040  16006.150341 -21330.885432    535.953673                    
V 13 -24997.984294   9352.270688   7951.060238      0.051323                    
P 14 -13401.598643  14029.338541 -18054.613357     95.314166                    
V 14  -1094.852636 -23098.445995 -17275.919955      0.123490                    
P 15  10799.333446  11906.886222 -21616.029068     50.194447                    
V 15 -20837.725261  16327.330144  -1187.457718      0.035229                    
P 16    -15.702662 -26130.620226  -3398.165795   -489.985173                    
V 16   3353.079695  -3710.673038  31760.366793      0.039325                    
P 17 -22038.964128  14358.172135   4512.200822    718.821325                    
V 17  -5613.587970    314.526587 -31298.666034      0.011654                    
P 18  22124.183631   1680.471304 -14720.443640   -313.257453                    
V 18  15044.786987  11062.674680  23719.900631     -0.149080                    
P 19 -17620.594490  16070.379404  11129.394248    332.531327                    
V 19 -14284.321387   3704.093952 -27725.006438      0.051228                    
P 20   1417.029201  26303.052208   4151.899713    427.227523                    
V 20  -3793.222296  -4645.260007  30789.400578     -0.020567                    
P 21 -18716.047089 -16399.099927  -9880.994661    152.982516                    
V 21  12659.231382   3769.474113 -27805.785744     -0.003200                    
P 22  14194.763120 -17620.007500  14233.218037    500.110006                    
V 22  16606.117418  -5501.946296 -24299.908605      0.059057                    
P 23  14631.471639  -4298.425678 -21725.872032     34.593071                    
V 23   1174.704115  27550.881892  -4811.274424      0.037025                    
P 24  20882.088463  15416.223270  -6950.969128   -229.782569                    
V 24  -8818.074784   -719.191149 -29210.284881     -0.129689                    
P 25  15036.350162   4739.359506  21095.268812    450.748099                    
V 25   -169.757429  27512.617649  -5712.801129      0.025026                    
P 26   5200.647392 -24134.728312   9209.102314    238.708273                    
V 26   4403.029993  11741.951259  28272.346683     -0.008818                    
P 27   3711.688794 -17727.992451 -19533.536025     13.620029                    
V 27  21759.405975 -11084.136639  14781.619335     -0.075652                    
P 28  11790.070012 -10574.245812  21300.683856     83.475989                    
V 28  23630.346485  13271.189933  -6488.414343      0.005331                    
P 29  23155.023350  -1358.192838  12974.776222   -603.242628                    
V 29 -14091.505193   8772.933459  25863.749601     -0.011871                    
P 30 -18323.327773   5066.566265 -18532.012433   -510.084938                    
V 30 -19617.358654 -13535.072279  15331.263508      0.024937                    
P 31    309.482147 -16721.519308  20360.062428   -218.451970                    
V 31  23158.072186  12689.428957  10402.834354     -0.007597                    
P 32  19773.954984 -16559.780770   6074.288854   -503.378713                    
V 32   7943.589778  -1332.872389 -30593.038720     -0.083360                    
EOF
